{"type": "FeatureCollection", "features": [ {"type": "Feature", "properties": {"norad_id": 32384, "name": "GPS BIIRM-5 (PRN 29)", "group": "gps-ops", "lat": -54.99619735165272, "lon": -175.3031490407184, "alt_km": 20206.371614975084, "timestamp": "2025-12-08T10:52:03.206168+00:00", "meta": {"OBJECT_NAME": "GPS BIIRM-5 (PRN 29)", "OBJECT_ID": "2007-062A", "EPOCH": "2025-12-07T07:51:30.252672", "MEAN_MOTION": 2.00576914, "ECCENTRICITY": 0.00322165, "INCLINATION": 55.187, "RA_OF_ASC_NODE": 281.863, "ARG_OF_PERICENTER": 162.6337, "MEAN_ANOMALY": 10.2823, "EPHEMERIS_TYPE": 0, "CLASSIFICATION_TYPE": "U", "NORAD_CAT_ID": 32384, "ELEMENT_SET_NO": 999, "REV_AT_EPOCH": 13166, "BSTAR": 0, "MEAN_MOTION_DOT": -4e-07, "MEAN_MOTION_DDOT": 0}, "tle": {"line1": "1 32384U 07062A   25341.32743348 -.00000040  00000+0  00000+0 0  9997", "line2": "2 32384  55.1870 281.8630 0032216 162.6337  10.2823  2.00576914131665"}}, "geometry": {"type": "Point", "coordinates": [-175.3031490407184, -54.99619735165272]}}, {"type": "Feature", "properties": {"norad_id": 32711, "name": "GPS BIIRM-6 (PRN 07)", "group": "gps-ops", "lat": -6.667891968627576, "lon": -17.67047673556368, "alt_km": 19881.235017281473, "timestamp": "2025-12-08T10:52:03.206180+00:00", "meta": {"OBJECT_NAME": "GPS BIIRM-6 (PRN 07)", "OBJECT_ID": "2008-012A", "EPOCH": "2025-12-07T16:30:50.099904", "MEAN_MOTION": 2.00565328, "ECCENTRICITY": 0.02022386, "INCLINATION": 54.4764, "RA_OF_ASC_NODE": 157.5746, "ARG_OF_PERICENTER": 244.892, "MEAN_ANOMALY": 113.0048, "EPHEMERIS_TYPE": 0, "CLASSIFICATION_TYPE": "U", "NORAD_CAT_ID": 32711, "ELEMENT_SET_NO": 999, "REV_AT_EPOCH": 12991, "BSTAR": 0, "MEAN_MOTION_DOT": 5.7e-07, "MEAN_MOTION_DDOT": 0}, "tle": {"line1": "1 32711U 08012A   25341.68807986  .00000057  00000+0  00000+0 0  9992", "line2": "2 32711  54.4764 157.5746 0202238 244.8920 113.0048  2.00565328129917"}}, "geometry": {"type": "Point", "coordinates": [-17.67047673556368, -6.667891968627576]}}, {"type": "Feature", "properties": {"norad_id": 35752, "name": "GPS BIIRM-8 (PRN 05)", "group": "gps-ops", "lat": -24.959237350284567, "lon": -126.79778449065093, "alt_km": 20271.11161287412, "timestamp": "2025-12-08T10:52:03.206192+00:00", "meta": {"OBJECT_NAME": "GPS BIIRM-8 (PRN 05)", "OBJECT_ID": "2009-043A", "EPOCH": "2025-12-07T22:53:42.029952", "MEAN_MOTION": 2.00565864, "ECCENTRICITY": 0.0051934, "INCLINATION": 56.0877, "RA_OF_ASC_NODE": 34.9719, "ARG_OF_PERICENTER": 81.9866, "MEAN_ANOMALY": 127.9119, "EPHEMERIS_TYPE": 0, "CLASSIFICATION_TYPE": "U", "NORAD_CAT_ID": 35752, "ELEMENT_SET_NO": 999, "REV_AT_EPOCH": 11952, "BSTAR": 0, "MEAN_MOTION_DOT": -7.9e-07, "MEAN_MOTION_DDOT": 0}, "tle": {"line1": "1 35752U 09043A   25341.95395868 -.00000079  00000+0  00000+0 0  9991", "line2": "2 35752  56.0877  34.9719 0051934  81.9866 127.9119  2.00565864119524"}}, "geometry": {"type": "Point", "coordinates": [-126.79778449065093, -24.959237350284567]}}, {"type": "Feature", "properties": {"norad_id": 36585, "name": "GPS BIIF-1  (PRN 25)", "group": "gps-ops", "lat": -26.145470805994112, "lon": -164.3988429156435, "alt_km": 20228.044046846637, "timestamp": "2025-12-08T10:52:03.206220+00:00", "meta": {"OBJECT_NAME": "GPS BIIF-1  (PRN 25)", "OBJECT_ID": "2010-022A", "EPOCH": "2025-12-07T05:49:32.737728", "MEAN_MOTION": 2.00552848, "ECCENTRICITY": 0.01258847, "INCLINATION": 54.3011, "RA_OF_ASC_NODE": 216.2957, "ARG_OF_PERICENTER": 65.0144, "MEAN_ANOMALY": 109.9417, "EPHEMERIS_TYPE": 0, "CLASSIFICATION_TYPE": "U", "NORAD_CAT_ID": 36585, "ELEMENT_SET_NO": 999, "REV_AT_EPOCH": 11374, "BSTAR": 0, "MEAN_MOTION_DOT": 3.7e-07, "MEAN_MOTION_DDOT": 0}, "tle": {"line1": "1 36585U 10022A   25341.24274002  .00000037  00000+0  00000+0 0  9996", "line2": "2 36585  54.3011 216.2957 0125884  65.0144 109.9417  2.00552848113744"}}, "geometry": {"type": "Point", "coordinates": [-164.3988429156435, -26.145470805994112]}}, {"type": "Feature", "properties": {"norad_id": 38833, "name": "GPS BIIF-3  (PRN 24)", "group": "gps-ops", "lat": 47.28163643086582, "lon": -155.42128526594476, "alt_km": 19710.315668338244, "timestamp": "2025-12-08T10:52:03.206233+00:00", "meta": {"OBJECT_NAME": "GPS BIIF-3  (PRN 24)", "OBJECT_ID": "2012-053A", "EPOCH": "2025-12-07T08:48:17.210304", "MEAN_MOTION": 2.00564894, "ECCENTRICITY": 0.01756357, "INCLINATION": 53.5567, "RA_OF_ASC_NODE": 151.4587, "ARG_OF_PERICENTER": 63.9203, "MEAN_ANOMALY": 297.8751, "EPHEMERIS_TYPE": 0, "CLASSIFICATION_TYPE": "U", "NORAD_CAT_ID": 38833, "ELEMENT_SET_NO": 999, "REV_AT_EPOCH": 9559, "BSTAR": 0, "MEAN_MOTION_DOT": 5.3e-07, "MEAN_MOTION_DDOT": 0}, "tle": {"line1": "1 38833U 12053A   25341.36686586  .00000053  00000+0  00000+0 0  9995", "line2": "2 38833  53.5567 151.4587 0175635  63.9203 297.8751  2.00564894 95594"}}, "geometry": {"type": "Point", "coordinates": [-155.42128526594476, 47.28163643086582]}}, {"type": "Feature", "properties": {"norad_id": 39166, "name": "GPS BIIF-4  (PRN 27)", "group": "gps-ops", "lat": 12.207066870400844, "lon": 87.90897618824016, "alt_km": 20338.963832522957, "timestamp": "2025-12-08T10:52:03.206246+00:00", "meta": {"OBJECT_NAME": "GPS BIIF-4  (PRN 27)", "OBJECT_ID": "2013-023A", "EPOCH": "2025-12-07T05:32:23.722368", "MEAN_MOTION": 2.00565063, "ECCENTRICITY": 0.01375641, "INCLINATION": 54.6569, "RA_OF_ASC_NODE": 276.7922, "ARG_OF_PERICENTER": 48.5542, "MEAN_ANOMALY": 312.6301, "EPHEMERIS_TYPE": 0, "CLASSIFICATION_TYPE": "U", "NORAD_CAT_ID": 39166, "ELEMENT_SET_NO": 999, "REV_AT_EPOCH": 9203, "BSTAR": 0, "MEAN_MOTION_DOT": -3.4e-07, "MEAN_MOTION_DDOT": 0}, "tle": {"line1": "1 39166U 13023A   25341.23083012 -.00000034  00000+0  00000+0 0  9994", "line2": "2 39166  54.6569 276.7922 0137564  48.5542 312.6301  2.00565063 92038"}}, "geometry": {"type": "Point", "coordinates": [87.90897618824016, 12.207066870400844]}}, {"type": "Feature", "properties": {"norad_id": 39533, "name": "GPS BIIF-5  (PRN 30)", "group": "gps-ops", "lat": 11.932194405908152, "lon": -31.870005881628902, "alt_km": 20078.104279931493, "timestamp": "2025-12-08T10:52:03.206258+00:00", "meta": {"OBJECT_NAME": "GPS BIIF-5  (PRN 30)", "OBJECT_ID": "2014-008A", "EPOCH": "2025-12-07T17:22:04.649088", "MEAN_MOTION": 2.00574086, "ECCENTRICITY": 0.007908, "INCLINATION": 53.6303, "RA_OF_ASC_NODE": 157.1293, "ARG_OF_PERICENTER": 226.426, "MEAN_ANOMALY": 132.9228, "EPHEMERIS_TYPE": 0, "CLASSIFICATION_TYPE": "U", "NORAD_CAT_ID": 39533, "ELEMENT_SET_NO": 999, "REV_AT_EPOCH": 8584, "BSTAR": 0, "MEAN_MOTION_DOT": 5.5e-07, "MEAN_MOTION_DDOT": 0}, "tle": {"line1": "1 39533U 14008A   25341.72366492  .00000055  00000+0  00000+0 0  9998", "line2": "2 39533  53.6303 157.1293 0079080 226.4260 132.9228  2.00574086 85843"}}, "geometry": {"type": "Point", "coordinates": [-31.870005881628902, 11.932194405908152]}}, {"type": "Feature", "properties": {"norad_id": 39741, "name": "GPS BIIF-6  (PRN 06)", "group": "gps-ops", "lat": -30.954839141130474, "lon": -44.388270594536685, "alt_km": 20082.848819410796, "timestamp": "2025-12-08T10:52:03.206280+00:00", "meta": {"OBJECT_NAME": "GPS BIIF-6  (PRN 06)", "OBJECT_ID": "2014-026A", "EPOCH": "2025-12-07T12:11:28.594176", "MEAN_MOTION": 2.00561597, "ECCENTRICITY": 0.00390407, "INCLINATION": 56.5857, "RA_OF_ASC_NODE": 338.9799, "ARG_OF_PERICENTER": 318.3816, "MEAN_ANOMALY": 41.333, "EPHEMERIS_TYPE": 0, "CLASSIFICATION_TYPE": "U", "NORAD_CAT_ID": 39741, "ELEMENT_SET_NO": 999, "REV_AT_EPOCH": 8469, "BSTAR": 0, "MEAN_MOTION_DOT": -8.2e-07, "MEAN_MOTION_DDOT": 0}, "tle": {"line1": "1 39741U 14026A   25341.50796984 -.00000082  00000+0  00000+0 0  9999", "line2": "2 39741  56.5857 338.9799 0039040 318.3816  41.3330  2.00561597 84692"}}, "geometry": {"type": "Point", "coordinates": [-44.388270594536685, -30.954839141130474]}}, {"type": "Feature", "properties": {"norad_id": 40105, "name": "GPS BIIF-7  (PRN 09)", "group": "gps-ops", "lat": -53.859527150886926, "lon": -12.08429549389028, "alt_km": 20253.50652148799, "timestamp": "2025-12-08T10:52:03.206303+00:00", "meta": {"OBJECT_NAME": "GPS BIIF-7  (PRN 09)", "OBJECT_ID": "2014-045A", "EPOCH": "2025-12-07T14:17:59.496864", "MEAN_MOTION": 2.00572139, "ECCENTRICITY": 0.00328259, "INCLINATION": 55.2261, "RA_OF_ASC_NODE": 96.1042, "ARG_OF_PERICENTER": 119.7348, "MEAN_ANOMALY": 240.5718, "EPHEMERIS_TYPE": 0, "CLASSIFICATION_TYPE": "U", "NORAD_CAT_ID": 40105, "ELEMENT_SET_NO": 999, "REV_AT_EPOCH": 8223, "BSTAR": 0, "MEAN_MOTION_DOT": -4e-08, "MEAN_MOTION_DDOT": 0}, "tle": {"line1": "1 40105U 14045A   25341.59582751 -.00000004  00000+0  00000+0 0  9994", "line2": "2 40105  55.2261  96.1042 0032825 119.7348 240.5718  2.00572139 82239"}}, "geometry": {"type": "Point", "coordinates": [-12.08429549389028, -53.859527150886926]}}, {"type": "Feature", "properties": {"norad_id": 40294, "name": "GPS BIIF-8  (PRN 03)", "group": "gps-ops", "lat": -10.767572253721443, "lon": 31.197810677730253, "alt_km": 20160.875430998007, "timestamp": "2025-12-08T10:52:03.206324+00:00", "meta": {"OBJECT_NAME": "GPS BIIF-8  (PRN 03)", "OBJECT_ID": "2014-068A", "EPOCH": "2025-12-05T23:27:53.798400", "MEAN_MOTION": 2.00564264, "ECCENTRICITY": 0.00608121, "INCLINATION": 56.8528, "RA_OF_ASC_NODE": 38.4077, "ARG_OF_PERICENTER": 69.3337, "MEAN_ANOMALY": 291.3749, "EPHEMERIS_TYPE": 0, "CLASSIFICATION_TYPE": "U", "NORAD_CAT_ID": 40294, "ELEMENT_SET_NO": 999, "REV_AT_EPOCH": 8133, "BSTAR": 0, "MEAN_MOTION_DOT": -6.8e-07, "MEAN_MOTION_DDOT": 0}, "tle": {"line1": "1 40294U 14068A   25339.97770600 -.00000068  00000+0  00000+0 0  9999", "line2": "2 40294  56.8528  38.4077 0060812  69.3337 291.3749  2.00564264 81331"}}, "geometry": {"type": "Point", "coordinates": [31.197810677730253, -10.767572253721443]}}]}